{"spkid": "50454759", "covariance": {"epoch": "2459240.5", "data": [["7.715346343335641E-12", "-8.399994513155168E-12", "-7.79840390372495E-10", "-1.110819996223634E-12", "-1.304424645525402E-9", "1.434551929507295E-10"], ["-8.399994513155168E-12", "9.1453991008882E-12", "8.490251261063805E-10", "1.209193491262963E-12", "1.420164793920191E-9", "-1.561828571709636E-10"], ["-7.79840390372495E-10", "8.490251261063805E-10", "8.612890251956524E-8", "1.930854912691248E-9", "1.35580058937583E-7", "-1.539405657463163E-8"], ["-1.110819996223634E-12", "1.209193491262963E-12", "1.930854912691248E-9", "9.945458697245741E-9", "-8.357756008454884E-9", "1.14615982777768E-9"], ["-1.304424645525402E-9", "1.420164793920191E-9", "1.35580058937583E-7", "-8.357756008454884E-9", "2.319091436250188E-7", "-2.609610157313614E-8"], ["1.434551929507295E-10", "-1.561828571709636E-10", "-1.539405657463163E-8", "1.14615982777768E-9", "-2.609610157313614E-8", "3.010717501670105E-9"]], "elements": [{"label": "e", "units": null, "title": "eccentricity", "value": ".24969600650988", "name": "e", "sigma": 2.77765122780662e-06}, {"title": "perihelion distance", "value": ".8423358493052043", "units": "au", "sigma": 3.02413609166125e-06, "name": "q", "label": "q"}, {"sigma": 0.000293477260651597, "name": "tp", "title": "time of perihelion passage", "value": "2459350.457687728151", "units": "TDB", "label": "tp"}, {"sigma": 9.97269206245021e-05, "name": "om", "units": "deg", "title": "longitude of the ascending node", "value": "357.1447536356152", "label": "node"}, {"label": "peri", "sigma": 0.000481569458775179, "name": "w", "value": "289.0405105547267", "title": "argument of perihelion", "units": "deg"}, {"units": "deg", "value": "4.201640717950707", "title": "inclination", "sigma": 5.4870005482687e-05, "name": "i", "label": "i"}], "labels": ["e", "q", "tp", "node", "peri", "i"]}, "elements": [{"sigma": "2.7852E-6", "name": "e", "title": "eccentricity", "value": ".2495953651863122", "units": null, "label": "e"}, {"name": "a", "sigma": "1.4887E-7", "title": "semi-major axis", "value": "1.12180260195944", "units": "au", "label": "a"}, {"label": "q", "sigma": "3.0128E-6", "name": "q", "title": "perihelion distance", "value": ".8418058718564183", "units": "au"}, {"units": "deg", "title": "inclination; angle with respect to x-y ecliptic plane", "value": "4.199808990902539", "name": "i", "sigma": "5.496E-5", "label": "i"}, {"name": "om", "sigma": "9.9817E-5", "units": "deg", "value": "357.084329312727", "title": "longitude of the ascending node", "label": "node"}, {"title": "argument of perihelion", "value": "288.9028133935725", "units": "deg", "sigma": ".00047379", "name": "w", "label": "peri"}, {"label": "M", "title": "mean anomaly", "value": "94.327438095652", "units": "deg", "sigma": "9.2167E-5", "name": "ma"}, {"sigma": "9.6207E-5", "name": "tp", "value": "2461086.787389461035", "title": "time of perihelion passage", "units": "TDB", "label": "tp"}, {"label": "period", "sigma": "8.6387E-5", "name": "per", "value": "433.9833734540305", "title": "sidereal orbital period", "units": "d"}, {"units": "deg/d", "title": "mean motion", "value": ".8295248666666556", "name": "n", "sigma": "1.6512E-7", "label": "n"}, {"value": "1.401799332062462", "title": "aphelion distance", "units": "au", "sigma": "1.8603E-7", "name": "ad", "label": "Q"}], "epoch": "2461200.5"}